{
  "type": "FeatureCollection",
  "features": [
    {
      "type": "Feature",
      "properties": {
        "norad_id": 33886,
        "name": "IRIDIUM 33 DEB",
        "group": "iridium-33-debris",
        "lat": -15.147542583758774,
        "lon": -107.46049813803776,
        "alt_km": 775.8743310876589,
        "timestamp": "2025-12-02T10:50:47.659852+00:00",
        "meta_object_name": "IRIDIUM 33 DEB",
        "meta_object_id": "1997-051BF",
        "meta_epoch": "2025-12-02T00:42:45.496800",
        "meta_mean_motion": 14.3602978,
        "meta_eccentricity": 0.0012036,
        "meta_inclination": 86.3833,
        "meta_ra_of_asc_node": 71.7361,
        "meta_arg_of_pericenter": 282.7225,
        "meta_mean_anomaly": 250.9616,
        "meta_ephemeris_type": 0,
        "meta_classification_type": "U",
        "meta_norad_cat_id": 33886,
        "meta_element_set_no": 999,
        "meta_rev_at_epoch": 87898,
        "meta_bstar": 0.00024926,
        "meta_mean_motion_dot": 7.44e-06,
        "meta_mean_motion_ddot": 0,
        "tle_line1": "1 33886U 97051BF  25336.02969325  .00000744  00000+0  24926-3 0  9995",
        "tle_line2": "2 33886  86.3833  71.7361 0012036 282.7225 250.9616 14.36029780878985"
      },
      "geometry": {
        "type": "Point",
        "coordinates": [
          -107.46049813803776,
          -15.147542583758774
        ]
      }
    },
    {
      "type": "Feature",
      "properties": {
        "norad_id": 33887,
        "name": "IRIDIUM 33 DEB",
        "group": "iridium-33-debris",
        "lat": 85.84021387773525,
        "lon": 70.50328686796668,
        "alt_km": 763.1309238532185,
        "timestamp": "2025-12-02T10:50:47.659863+00:00",
        "meta_object_name": "IRIDIUM 33 DEB",
        "meta_object_id": "1997-051BG",
        "meta_epoch": "2025-12-02T02:12:48.398112",
        "meta_mean_motion": 14.37205512,
        "meta_eccentricity": 0.0004039,
        "meta_inclination": 86.3053,
        "meta_ra_of_asc_node": 7.9804,
        "meta_arg_of_pericenter": 277.872,
        "meta_mean_anomaly": 110.2578,
        "meta_ephemeris_type": 0,
        "meta_classification_type": "U",
        "meta_norad_cat_id": 33887,
        "meta_element_set_no": 999,
        "meta_rev_at_epoch": 88012,
        "meta_bstar": 0.00017226,
        "meta_mean_motion_dot": 5.32e-06,
        "meta_mean_motion_ddot": 0,
        "tle_line1": "1 33887U 97051BG  25336.09222683  .00000532  00000+0  17226-3 0  9992",
        "tle_line2": "2 33887  86.3053   7.9804 0004039 277.8720 110.2578 14.37205512880126"
      },
      "geometry": {
        "type": "Point",
        "coordinates": [
          70.50328686796668,
          85.84021387773525
        ]
      }
    },
    {
      "type": "Feature",
      "properties": {
        "norad_id": 33953,
        "name": "IRIDIUM 33 DEB",
        "group": "iridium-33-debris",
        "lat": -3.2967654681695264,
        "lon": 58.0347701585766,
        "alt_km": 721.9452857190245,
        "timestamp": "2025-12-02T10:50:47.659874+00:00",
        "meta_object_name": "IRIDIUM 33 DEB",
        "meta_object_id": "1997-051BN",
        "meta_epoch": "2025-12-01T11:49:34.999680",
        "meta_mean_motion": 14.55133088,
        "meta_eccentricity": 0.00184148,
        "meta_inclination": 86.3852,
        "meta_ra_of_asc_node": 58.6594,
        "meta_arg_of_pericenter": 137.1795,
        "meta_mean_anomaly": 238.3819,
        "meta_ephemeris_type": 0,
        "meta_classification_type": "U",
        "meta_norad_cat_id": 33953,
        "meta_element_set_no": 999,
        "meta_rev_at_epoch": 88140,
        "meta_bstar": 0.0015798545,
        "meta_mean_motion_dot": 6.858e-05,
        "meta_mean_motion_ddot": 0,
        "tle_line1": "1 33953U 97051BN  25335.49276620  .00006858  00000+0  15799-2 0  9998",
        "tle_line2": "2 33953  86.3852  58.6594 0018414 137.1795 238.3819 14.55133088881408"
      },
      "geometry": {
        "type": "Point",
        "coordinates": [
          58.0347701585766,
          -3.2967654681695264
        ]
      }
    },
    {
      "type": "Feature",
      "properties": {
        "norad_id": 33960,
        "name": "IRIDIUM 33 DEB",
        "group": "iridium-33-debris",
        "lat": 30.29462594543176,
        "lon": 112.16701918934064,
        "alt_km": 613.0146367159268,
        "timestamp": "2025-12-02T10:50:47.659885+00:00",
        "meta_object_name": "IRIDIUM 33 DEB",
        "meta_object_id": "1997-051BV",
        "meta_epoch": "2025-12-01T21:29:55.792032",
        "meta_mean_motion": 14.84270371,
        "meta_eccentricity": 0.0006917,
        "meta_inclination": 86.2527,
        "meta_ra_of_asc_node": 294.6233,
        "meta_arg_of_pericenter": 77.1368,
        "meta_mean_anomaly": 342.5021,
        "meta_ephemeris_type": 0,
        "meta_classification_type": "U",
        "meta_norad_cat_id": 33960,
        "meta_element_set_no": 999,
        "meta_rev_at_epoch": 88706,
        "meta_bstar": 0.0035106,
        "meta_mean_motion_dot": 0.00029537,
        "meta_mean_motion_ddot": 0,
        "tle_line1": "1 33960U 97051BV  25335.89578463  .00029537  00000+0  35106-2 0  9993",
        "tle_line2": "2 33960  86.2527 294.6233 0006917  77.1368 342.5021 14.84270371887060"
      },
      "geometry": {
        "type": "Point",
        "coordinates": [
          112.16701918934064,
          30.29462594543176
        ]
      }
    },
    {
      "type": "Feature",
      "properties": {
        "norad_id": 33966,
        "name": "IRIDIUM 33 DEB",
        "group": "iridium-33-debris",
        "lat": -26.88986991583607,
        "lon": 48.60855147090422,
        "alt_km": 734.362506876756,
        "timestamp": "2025-12-02T10:50:47.659896+00:00",
        "meta_object_name": "IRIDIUM 33 DEB",
        "meta_object_id": "1997-051CB",
        "meta_epoch": "2025-12-02T04:36:25.343136",
        "meta_mean_motion": 14.49519248,
        "meta_eccentricity": 0.0006277,
        "meta_inclination": 86.3934,
        "meta_ra_of_asc_node": 50.5529,
        "meta_arg_of_pericenter": 226.7343,
        "meta_mean_anomaly": 190.5824,
        "meta_ephemeris_type": 0,
        "meta_classification_type": "U",
        "meta_norad_cat_id": 33966,
        "meta_element_set_no": 999,
        "meta_rev_at_epoch": 88289,
        "meta_bstar": 0.000703,
        "meta_mean_motion_dot": 2.714e-05,
        "meta_mean_motion_ddot": 0,
        "tle_line1": "1 33966U 97051CB  25336.19195999  .00002714  00000+0  70300-3 0  9996",
        "tle_line2": "2 33966  86.3934  50.5529 0006277 226.7343 190.5824 14.49519248882898"
      },
      "geometry": {
        "type": "Point",
        "coordinates": [
          48.60855147090422,
          -26.88986991583607
        ]
      }
    },
    {
      "type": "Feature",
      "properties": {
        "norad_id": 34071,
        "name": "IRIDIUM 33 DEB",
        "group": "iridium-33-debris",
        "lat": 44.01809180686612,
        "lon": 25.83904601047309,
        "alt_km": 724.154222153973,
        "timestamp": "2025-12-02T10:50:47.659907+00:00",
        "meta_object_name": "IRIDIUM 33 DEB",
        "meta_object_id": "1997-051CE",
        "meta_epoch": "2025-12-02T04:00:56.713248",
        "meta_mean_motion": 14.49386618,
        "meta_eccentricity": 0.0009409,
        "meta_inclination": 86.3469,
        "meta_ra_of_asc_node": 22.4233,
        "meta_arg_of_pericenter": 136.3059,
        "meta_mean_anomaly": 223.8891,
        "meta_ephemeris_type": 0,
        "meta_classification_type": "U",
        "meta_norad_cat_id": 34071,
        "meta_element_set_no": 999,
        "meta_rev_at_epoch": 88181,
        "meta_bstar": 0.00071637,
        "meta_mean_motion_dot": 2.758e-05,
        "meta_mean_motion_ddot": 0,
        "tle_line1": "1 34071U 97051CE  25336.16732307  .00002758  00000+0  71637-3 0  9993",
        "tle_line2": "2 34071  86.3469  22.4233 0009409 136.3059 223.8891 14.49386618881817"
      },
      "geometry": {
        "type": "Point",
        "coordinates": [
          25.83904601047309,
          44.01809180686612
        ]
      }
    },
    {
      "type": "Feature",
      "properties": {
        "norad_id": 34077,
        "name": "IRIDIUM 33 DEB",
        "group": "iridium-33-debris",
        "lat": 41.35074948745571,
        "lon": 59.225254763078404,
        "alt_km": 668.5826653004233,
        "timestamp": "2025-12-02T10:50:47.659917+00:00",
        "meta_object_name": "IRIDIUM 33 DEB",
        "meta_object_id": "1997-051CL",
        "meta_epoch": "2025-12-02T04:23:57.475968",
        "meta_mean_motion": 14.64546723,
        "meta_eccentricity": 0.0011001,
        "meta_inclination": 86.3871,
        "meta_ra_of_asc_node": 56.1558,
        "meta_arg_of_pericenter": 72.538,
        "meta_mean_anomaly": 353.6288,
        "meta_ephemeris_type": 0,
        "meta_classification_type": "U",
        "meta_norad_cat_id": 34077,
        "meta_element_set_no": 999,
        "meta_rev_at_epoch": 88178,
        "meta_bstar": 0.0019988,
        "meta_mean_motion_dot": 0.00010637,
        "meta_mean_motion_ddot": 0,
        "tle_line1": "1 34077U 97051CL  25336.18330412  .00010637  00000+0  19988-2 0  9997",
        "tle_line2": "2 34077  86.3871  56.1558 0011001  72.5380 353.6288 14.64546723881783"
      },
      "geometry": {
        "type": "Point",
        "coordinates": [
          59.225254763078404,
          41.35074948745571
        ]
      }
    }
  ]
}